{
  "type": "FeatureCollection",
  "features": [
    { "type": "Feature", "geometry": { "type": "Point", "coordinates": [78.4744, 17.3616] }, "properties": { "building_id": "BLD_HYD_001", "name": "Charminar Heritage Zone Commercial Complex", "risk_score": 94, "risk_level": "Critical", "occupancy": 350, "latitude": 17.3616, "longitude": 78.4744 } },
    { "type": "Feature", "geometry": { "type": "Point", "coordinates": [78.4867, 17.3850] }, "properties": { "building_id": "BLD_HYD_002", "name": "Koti Old Market Arcade", "risk_score": 88, "risk_level": "Critical", "occupancy": 220, "latitude": 17.3850, "longitude": 78.4867 } },
    { "type": "Feature", "geometry": { "type": "Point", "coordinates": [78.4735, 17.4435] }, "properties": { "building_id": "BLD_HYD_003", "name": "Begumpet Commercial Plaza", "risk_score": 81, "risk_level": "Critical", "occupancy": 180, "latitude": 17.4435, "longitude": 78.4735 } },
    { "type": "Feature", "geometry": { "type": "Point", "coordinates": [78.4482, 17.4156] }, "properties": { "building_id": "BLD_HYD_004", "name": "Banjara Hills Road No 1 Towers", "risk_score": 76, "risk_level": "High", "occupancy": 140, "latitude": 17.4156, "longitude": 78.4482 } },
    { "type": "Feature", "geometry": { "type": "Point", "coordinates": [78.5010, 17.4000] }, "properties": { "building_id": "BLD_HYD_005", "name": "Amberpet Residential Block C", "risk_score": 71, "risk_level": "High", "occupancy": 95, "latitude": 17.4000, "longitude": 78.5010 } },
    { "type": "Feature", "geometry": { "type": "Point", "coordinates": [78.5480, 17.3520] }, "properties": { "building_id": "BLD_HYD_006", "name": "LB Nagar Junction Shopping Complex", "risk_score": 67, "risk_level": "High", "occupancy": 310, "latitude": 17.3520, "longitude": 78.5480 } },
    { "type": "Feature", "geometry": { "type": "Point", "coordinates": [78.4011, 17.4932] }, "properties": { "building_id": "BLD_HYD_007", "name": "Kukatpally Housing Board Market", "risk_score": 59, "risk_level": "Medium", "occupancy": 200, "latitude": 17.4932, "longitude": 78.4011 } },
    { "type": "Feature", "geometry": { "type": "Point", "coordinates": [78.4312, 17.4239] }, "properties": { "building_id": "BLD_HYD_008", "name": "Jubilee Hills Checkpost Center", "risk_score": 52, "risk_level": "Medium", "occupancy": 110, "latitude": 17.4239, "longitude": 78.4312 } },
    { "type": "Feature", "geometry": { "type": "Point", "coordinates": [78.5000, 17.4400] }, "properties": { "building_id": "BLD_HYD_009", "name": "Secunderabad Station Road Annex", "risk_score": 45, "risk_level": "Medium", "occupancy": 260, "latitude": 17.4400, "longitude": 78.5000 } },
    { "type": "Feature", "geometry": { "type": "Point", "coordinates": [78.3812, 17.4486] }, "properties": { "building_id": "BLD_HYD_010", "name": "HITEC City Cyber Towers Annexe", "risk_score": 38, "risk_level": "Medium", "occupancy": 500, "latitude": 17.4486, "longitude": 78.3812 } },
    { "type": "Feature", "geometry": { "type": "Point", "coordinates": [78.3588, 17.4399] }, "properties": { "building_id": "BLD_HYD_011", "name": "Gachibowli Financial District Hub", "risk_score": 24, "risk_level": "Low", "occupancy": 650, "latitude": 17.4399, "longitude": 78.3588 } },
    { "type": "Feature", "geometry": { "type": "Point", "coordinates": [78.5250, 17.3700] }, "properties": { "building_id": "BLD_HYD_012", "name": "Malakpet Residential Enclave", "risk_score": 19, "risk_level": "Low", "occupancy": 85, "latitude": 17.3700, "longitude": 78.5250 } }
  ]
}
