{
  "type": "FeatureCollection",
  "features": [
    { "type": "Feature", "geometry": { "type": "Point", "coordinates": [78.4820, 17.3810] }, "properties": { "shelter_id": "SHELTER_HYD_001", "name": "Nizam College Open Grounds Safe Zone", "latitude": 17.3810, "longitude": 78.4820, "capacity": 3000, "status": "Active" } },
    { "type": "Feature", "geometry": { "type": "Point", "coordinates": [78.4500, 17.4200] }, "properties": { "shelter_id": "SHELTER_HYD_002", "name": "GVK City Open Grounds Safe Zone", "latitude": 17.4200, "longitude": 78.4500, "capacity": 2500, "status": "Active" } },
    { "type": "Feature", "geometry": { "type": "Point", "coordinates": [78.3900, 17.4500] }, "properties": { "shelter_id": "SHELTER_HYD_003", "name": "HITEX Exhibition Center Safe Zone", "latitude": 17.4500, "longitude": 78.3900, "capacity": 8000, "status": "Active" } },
    { "type": "Feature", "geometry": { "type": "Point", "coordinates": [78.5030, 17.4350] }, "properties": { "shelter_id": "SHELTER_HYD_004", "name": "Gymkhana Grounds Safe Zone", "latitude": 17.4350, "longitude": 78.5030, "capacity": 5000, "status": "Active" } },
    { "type": "Feature", "geometry": { "type": "Point", "coordinates": [78.5520, 17.3600] }, "properties": { "shelter_id": "SHELTER_HYD_005", "name": "LB Nagar Indoor Stadium Safe Zone", "latitude": 17.3600, "longitude": 78.5520, "capacity": 3500, "status": "Active" } }
  ]
}
