{
  "type": "FeatureCollection",
  "features": [
    {
      "type": "Feature",
      "geometry": {
        "type": "LineString",
        "coordinates": [
          [78.4800, 17.3750],
          [78.4780, 17.3700],
          [78.4744, 17.3616]
        ]
      },
      "properties": { "route_id": "ROUTE_001", "name": "DRF Unit 1 to Charminar Hazard Site", "distance_km": 2.1, "duration_min": 7 }
    },
    {
      "type": "Feature",
      "geometry": {
        "type": "LineString",
        "coordinates": [
          [78.4744, 17.3616],
          [78.4800, 17.3700],
          [78.4820, 17.3810]
        ]
      },
      "properties": { "route_id": "ROUTE_002", "name": "Charminar Evacuation to Nizam College Shelter", "distance_km": 2.8, "duration_min": 9 }
    }
  ]
}
